[{"OBJECT_NAME":"CENTISPACE-1 OBJECT E","OBJECT_ID":"2026-060E","EPOCH":"2026-04-16T07:19:30.330624","MEAN_MOTION":14.74546122,"ECCENTRICITY":0.00127784,"INCLINATION":54.9757,"RA_OF_ASC_NODE":288.1472,"ARG_OF_PERICENTER":5.7926,"MEAN_ANOMALY":354.3219,"EPHEMERIS_TYPE":0,"CLASSIFICATION_TYPE":"U","NORAD_CAT_ID":68354,"ELEMENT_SET_NO":999,"REV_AT_EPOCH":364,"BSTAR":1.7780926e-5,"MEAN_MOTION_DOT":-9.0e-7,"MEAN_MOTION_DDOT":0},{"OBJECT_NAME":"CENTISPACE-1 OBJECT F","OBJECT_ID":"2026-060F","EPOCH":"2026-04-16T07:23:05.458848","MEAN_MOTION":14.73876056,"ECCENTRICITY":0.00106011,"INCLINATION":54.9764,"RA_OF_ASC_NODE":288.1602,"ARG_OF_PERICENTER":0.0812,"MEAN_ANOMALY":0.0187,"EPHEMERIS_TYPE":0,"CLASSIFICATION_TYPE":"U","NORAD_CAT_ID":68355,"ELEMENT_SET_NO":999,"REV_AT_EPOCH":364,"BSTAR":1.826123e-5,"MEAN_MOTION_DOT":-8.7e-7,"MEAN_MOTION_DDOT":0},{"OBJECT_NAME":"CENTISPACE-1 OBJECT G","OBJECT_ID":"2026-060G","EPOCH":"2026-04-16T07:15:47.600064","MEAN_MOTION":14.74587302,"ECCENTRICITY":0.00130238,"INCLINATION":54.9865,"RA_OF_ASC_NODE":288.1549,"ARG_OF_PERICENTER":2.003,"MEAN_ANOMALY":358.1019,"EPHEMERIS_TYPE":0,"CLASSIFICATION_TYPE":"U","NORAD_CAT_ID":68356,"ELEMENT_SET_NO":999,"REV_AT_EPOCH":364,"BSTAR":1.7585627e-5,"MEAN_MOTION_DOT":-9.1e-7,"MEAN_MOTION_DDOT":0},{"OBJECT_NAME":"CENTISPACE-1 OBJECT H","OBJECT_ID":"2026-060H","EPOCH":"2026-04-16T07:17:41.146080","MEAN_MOTION":14.74218606,"ECCENTRICITY":0.00119532,"INCLINATION":54.9854,"RA_OF_ASC_NODE":288.1619,"ARG_OF_PERICENTER":9.6113,"MEAN_ANOMALY":350.5113,"EPHEMERIS_TYPE":0,"CLASSIFICATION_TYPE":"U","NORAD_CAT_ID":68357,"ELEMENT_SET_NO":999,"REV_AT_EPOCH":364,"BSTAR":1.8179488e-5,"MEAN_MOTION_DOT":-8.7e-7,"MEAN_MOTION_DDOT":0},{"OBJECT_NAME":"CENTISPACE-1 OBJECT J","OBJECT_ID":"2026-060J","EPOCH":"2026-04-16T07:18:11.801664","MEAN_MOTION":14.74010732,"ECCENTRICITY":0.00114765,"INCLINATION":54.9813,"RA_OF_ASC_NODE":288.1543,"ARG_OF_PERICENTER":5.0993,"MEAN_ANOMALY":355.0121,"EPHEMERIS_TYPE":0,"CLASSIFICATION_TYPE":"U","NORAD_CAT_ID":68358,"ELEMENT_SET_NO":999,"REV_AT_EPOCH":364,"BSTAR":1.6767036e-5,"MEAN_MOTION_DOT":-9.7e-7,"MEAN_MOTION_DDOT":0},{"OBJECT_NAME":"CENTISPACE-1 OBJECT K","OBJECT_ID":"2026-060K","EPOCH":"2026-04-04T15:27:21.758112","MEAN_MOTION":14.75283234,"ECCENTRICITY":0.0014769,"INCLINATION":54.98,"RA_OF_ASC_NODE":335.6935,"ARG_OF_PERICENTER":336.0624,"MEAN_ANOMALY":23.9687,"EPHEMERIS_TYPE":0,"CLASSIFICATION_TYPE":"U","NORAD_CAT_ID":68359,"ELEMENT_SET_NO":999,"REV_AT_EPOCH":192,"BSTAR":4.3130657e-5,"MEAN_MOTION_DOT":8.4e-7,"MEAN_MOTION_DDOT":0},{"OBJECT_NAME":"RASSVET-3 1","OBJECT_ID":"2026-061A","EPOCH":"2026-04-16T05:17:59.167680","MEAN_MOTION":15.86580842,"ECCENTRICITY":0.00208288,"INCLINATION":82.2939,"RA_OF_ASC_NODE":82.1129,"ARG_OF_PERICENTER":348.6001,"MEAN_ANOMALY":11.4794,"EPHEMERIS_TYPE":0,"CLASSIFICATION_TYPE":"U","NORAD_CAT_ID":68360,"ELEMENT_SET_NO":999,"REV_AT_EPOCH":373,"BSTAR":0.00023755303,"MEAN_MOTION_DOT":0.00061058,"MEAN_MOTION_DDOT":1.44496e-7},{"OBJECT_NAME":"RASSVET-3 2","OBJECT_ID":"2026-061B","EPOCH":"2026-04-16T04:55:26.740704","MEAN_MOTION":15.91094853,"ECCENTRICITY":0.0022101,"INCLINATION":82.2962,"RA_OF_ASC_NODE":82.094,"ARG_OF_PERICENTER":345.6471,"MEAN_ANOMALY":14.4171,"EPHEMERIS_TYPE":0,"CLASSIFICATION_TYPE":"U","NORAD_CAT_ID":68361,"ELEMENT_SET_NO":999,"REV_AT_EPOCH":373,"BSTAR":0.00027612571,"MEAN_MOTION_DOT":0.00089058,"MEAN_MOTION_DDOT":1.684077e-6},{"OBJECT_NAME":"RASSVET-3 3","OBJECT_ID":"2026-061C","EPOCH":"2026-04-16T04:55:10.476768","MEAN_MOTION":15.91089673,"ECCENTRICITY":0.0021825,"INCLINATION":82.2961,"RA_OF_ASC_NODE":82.0933,"ARG_OF_PERICENTER":345.3988,"MEAN_ANOMALY":14.6651,"EPHEMERIS_TYPE":0,"CLASSIFICATION_TYPE":"U","NORAD_CAT_ID":68362,"ELEMENT_SET_NO":999,"REV_AT_EPOCH":373,"BSTAR":0.00026196205,"MEAN_MOTION_DOT":0.00084439,"MEAN_MOTION_DDOT":1.399662e-6},{"OBJECT_NAME":"RASSVET-3 4","OBJECT_ID":"2026-061D","EPOCH":"2026-04-16T06:26:36.478464","MEAN_MOTION":15.90888074,"ECCENTRICITY":0.00222957,"INCLINATION":82.2968,"RA_OF_ASC_NODE":82.0244,"ARG_OF_PERICENTER":345.2977,"MEAN_ANOMALY":14.7644,"EPHEMERIS_TYPE":0,"CLASSIFICATION_TYPE":"U","NORAD_CAT_ID":68363,"ELEMENT_SET_NO":999,"REV_AT_EPOCH":374,"BSTAR":0.00024691636,"MEAN_MOTION_DOT":0.00078867,"MEAN_MOTION_DDOT":1.072865e-6},{"OBJECT_NAME":"RASSVET-3 5","OBJECT_ID":"2026-061E","EPOCH":"2026-04-16T06:25:30.791136","MEAN_MOTION":15.91048431,"ECCENTRICITY":0.00219231,"INCLINATION":82.2962,"RA_OF_ASC_NODE":82.0217,"ARG_OF_PERICENTER":345.1122,"MEAN_ANOMALY":14.9502,"EPHEMERIS_TYPE":0,"CLASSIFICATION_TYPE":"U","NORAD_CAT_ID":68364,"ELEMENT_SET_NO":999,"REV_AT_EPOCH":374,"BSTAR":0.0002596268,"MEAN_MOTION_DOT":0.00083529,"MEAN_MOTION_DDOT":1.344526e-6},{"OBJECT_NAME":"RASSVET-3 6","OBJECT_ID":"2026-061F","EPOCH":"2026-04-16T06:23:07.448352","MEAN_MOTION":15.91205147,"ECCENTRICITY":0.00216754,"INCLINATION":82.2963,"RA_OF_ASC_NODE":82.0194,"ARG_OF_PERICENTER":345.2769,"MEAN_ANOMALY":14.7869,"EPHEMERIS_TYPE":0,"CLASSIFICATION_TYPE":"U","NORAD_CAT_ID":68365,"ELEMENT_SET_NO":999,"REV_AT_EPOCH":374,"BSTAR":0.00025507809,"MEAN_MOTION_DOT":0.00082693,"MEAN_MOTION_DDOT":1.299175e-6},{"OBJECT_NAME":"RASSVET-3 7","OBJECT_ID":"2026-061G","EPOCH":"2026-04-16T04:54:14.277024","MEAN_MOTION":15.91069687,"ECCENTRICITY":0.00217218,"INCLINATION":82.2961,"RA_OF_ASC_NODE":82.0925,"ARG_OF_PERICENTER":345.4371,"MEAN_ANOMALY":14.6272,"EPHEMERIS_TYPE":0,"CLASSIFICATION_TYPE":"U","NORAD_CAT_ID":68366,"ELEMENT_SET_NO":999,"REV_AT_EPOCH":373,"BSTAR":0.00025895267,"MEAN_MOTION_DOT":0.0008337,"MEAN_MOTION_DDOT":1.335563e-6},{"OBJECT_NAME":"RASSVET-3 8","OBJECT_ID":"2026-061H","EPOCH":"2026-04-16T06:25:12.655776","MEAN_MOTION":15.91049105,"ECCENTRICITY":0.00217942,"INCLINATION":82.2964,"RA_OF_ASC_NODE":82.0214,"ARG_OF_PERICENTER":344.9721,"MEAN_ANOMALY":15.0901,"EPHEMERIS_TYPE":0,"CLASSIFICATION_TYPE":"U","NORAD_CAT_ID":68367,"ELEMENT_SET_NO":999,"REV_AT_EPOCH":374,"BSTAR":0.00025156334,"MEAN_MOTION_DOT":0.00080928,"MEAN_MOTION_DDOT":1.193069e-6},{"OBJECT_NAME":"RASSVET-3 9","OBJECT_ID":"2026-061J","EPOCH":"2026-04-15T22:44:02.503680","MEAN_MOTION":15.91693062,"ECCENTRICITY":0.0020567,"INCLINATION":82.2955,"RA_OF_ASC_NODE":82.3671,"ARG_OF_PERICENTER":348.2982,"MEAN_ANOMALY":11.7809,"EPHEMERIS_TYPE":0,"CLASSIFICATION_TYPE":"U","NORAD_CAT_ID":68368,"ELEMENT_SET_NO":999,"REV_AT_EPOCH":369,"BSTAR":0.00026623965,"MEAN_MOTION_DOT":0.00088298,"MEAN_MOTION_DDOT":1.652958e-6},{"OBJECT_NAME":"RASSVET-3 10","OBJECT_ID":"2026-061K","EPOCH":"2026-04-16T06:24:46.989792","MEAN_MOTION":15.90990302,"ECCENTRICITY":0.0021748,"INCLINATION":82.2965,"RA_OF_ASC_NODE":82.0214,"ARG_OF_PERICENTER":344.9782,"MEAN_ANOMALY":15.0842,"EPHEMERIS_TYPE":0,"CLASSIFICATION_TYPE":"U","NORAD_CAT_ID":68369,"ELEMENT_SET_NO":999,"REV_AT_EPOCH":374,"BSTAR":0.00025861792,"MEAN_MOTION_DOT":0.0008293,"MEAN_MOTION_DDOT":1.307648e-6}]
