CENTISPACE-1 OBJECT E   
1 68354U 26060E   26106.30521216 -.00000090  00000+0  17781-4 0  9992
2 68354  54.9757 288.1472 0012778   5.7926 354.3219 14.74546122  3647
CENTISPACE-1 OBJECT F   
1 68355U 26060F   26106.30770207 -.00000087  00000+0  18261-4 0  9999
2 68355  54.9764 288.1602 0010601   0.0812   0.0187 14.73876056  3646
CENTISPACE-1 OBJECT G   
1 68356U 26060G   26106.30263426 -.00000091  00000+0  17586-4 0  9994
2 68356  54.9865 288.1549 0013023   2.0030 358.1019 14.74587302  3649
CENTISPACE-1 OBJECT H   
1 68357U 26060H   26106.30394845 -.00000087  00000+0  18179-4 0  9999
2 68357  54.9854 288.1619 0011953   9.6113 350.5113 14.74218606  3640
CENTISPACE-1 OBJECT J   
1 68358U 26060J   26106.30430326 -.00000097  00000+0  16767-4 0  9997
2 68358  54.9813 288.1543 0011476   5.0993 355.0121 14.74010732  3647
CENTISPACE-1 OBJECT K   
1 68359U 26060K   26094.64400183  .00000084  00000+0  43131-4 0  9999
2 68359  54.9800 335.6935 0014769 336.0624  23.9687 14.75283234  1920
RASSVET-3 1             
1 68360U 26061A   26106.22082370  .00061058  14450-6  23755-3 0  9992
2 68360  82.2939  82.1129 0020828 348.6001  11.4794 15.86580842  3739
RASSVET-3 2             
1 68361U 26061B   26106.20517061  .00089058  16841-5  27613-3 0  9993
2 68361  82.2962  82.0940 0022101 345.6471  14.4171 15.91094853  3730
RASSVET-3 3             
1 68362U 26061C   26106.20498237  .00084439  13997-5  26196-3 0  9999
2 68362  82.2961  82.0933 0021825 345.3988  14.6651 15.91089673  3733
RASSVET-3 4             
1 68363U 26061D   26106.26847776  .00078867  10729-5  24692-3 0  9999
2 68363  82.2968  82.0244 0022295 345.2977  14.7644 15.90888074  3740
RASSVET-3 5             
1 68364U 26061E   26106.26771749  .00083529  13445-5  25963-3 0  9997
2 68364  82.2962  82.0217 0021923 345.1122  14.9502 15.91048431  3744
RASSVET-3 6             
1 68365U 26061F   26106.26605843  .00082693  12992-5  25508-3 0  9991
2 68365  82.2963  82.0194 0021675 345.2769  14.7869 15.91205147  3745
RASSVET-3 7             
1 68366U 26061G   26106.20433191  .00083370  13356-5  25895-3 0  9998
2 68366  82.2961  82.0925 0021721 345.4371  14.6272 15.91069687  3732
RASSVET-3 8             
1 68367U 26061H   26106.26750759  .00080928  11931-5  25156-3 0  9990
2 68367  82.2964  82.0214 0021794 344.9721  15.0901 15.91049105  3748
RASSVET-3 9             
1 68368U 26061J   26105.94725120  .00088298  16530-5  26624-3 0  9998
2 68368  82.2955  82.3671 0020567 348.2982  11.7809 15.91693062  3693
RASSVET-3 10            
1 68369U 26061K   26106.26721053  .00082930  13076-5  25862-3 0  9998
2 68369  82.2965  82.0214 0021748 344.9782  15.0842 15.90990302  3744
